start=new Date('2021-12-21T00:00:00.000Z').valueOf();
sats=[{"REF_FRAME":"TEME","TLE_LINE1":"1 47397U 21005BA  21354.83238542 -.00000614  00000-0 -22290-4 0  9990","OBJECT_TYPE":"PAYLOAD","ARG_OF_PERICENTER":"86.1357","RA_OF_ASC_NODE":"134.3118","PERIOD":"95.592","RCS_SIZE":"LARGE","PERIAPSIS":"545.908","ECCENTRICITY":"0.00018860","OBJECT_ID":"2021-005BA","ELEMENT_SET_NO":"999","GP_ID":"192111789","BSTAR":"-0.00002229000000","NORAD_CAT_ID":"47397","MEAN_MOTION_DDOT":"0.0000000000000","MEAN_MOTION_DOT":"-0.00000614","EPOCH":"2021-12-20T19:58:38.100288","OBJECT_NAME":"STARLINK-2119","LAUNCH_DATE":"2021-01-20","APOAPSIS":"548.520","FILE":"3245895","DECAY_DATE":null,"CLASSIFICATION_TYPE":"U","SEMIMAJOR_AXIS":"6925.349","REV_AT_EPOCH":"5095","MEAN_ELEMENT_THEORY":"SGP4","EPHEMERIS_TYPE":"0","SITE":"AFETR","INCLINATION":"53.0525","MEAN_ANOMALY":"273.9848","MEAN_MOTION":"15.06399801","TLE_LINE2":"2 47397  53.0525 134.3118 0001886  86.1357 273.9848 15.06399801 50958","COUNTRY_CODE":"US","TIME_SYSTEM":"UTC","CENTER_NAME":"EARTH"},{"PERIAPSIS":"545.980","ECCENTRICITY":"0.00017510","ELEMENT_SET_NO":"999","OBJECT_ID":"2021-005BB","GP_ID":"192112039","BSTAR":"0.00001844000000","NORAD_CAT_ID":"47398","MEAN_MOTION_DDOT":"0.0000000000000","MEAN_MOTION_DOT":"-0.00000007","EPOCH":"2021-12-20T19:20:08.000160","OBJECT_NAME":"STARLINK-2120","LAUNCH_DATE":"2021-01-20","APOAPSIS":"548.405","REF_FRAME":"TEME","OBJECT_TYPE":"PAYLOAD","TLE_LINE1":"1 47398U 21005BB  21354.80564815 -.00000007  00000-0  18440-4 0  9990","ARG_OF_PERICENTER":"106.1056","RA_OF_ASC_NODE":"104.4220","PERIOD":"95.592","RCS_SIZE":"LARGE","MEAN_MOTION":"15.06406773","MEAN_ANOMALY":"254.0125","TLE_LINE2":"2 47398  53.0539 104.4220 0001751 106.1056 254.0125 15.06406773 51367","COUNTRY_CODE":"US","TIME_SYSTEM":"UTC","CENTER_NAME":"EARTH","FILE":"3245895","DECAY_DATE":null,"CLASSIFICATION_TYPE":"U","SEMIMAJOR_AXIS":"6925.328","REV_AT_EPOCH":"5136","MEAN_ELEMENT_THEORY":"SGP4","SITE":"AFETR","EPHEMERIS_TYPE":"0","INCLINATION":"53.0539"},{"RCS_SIZE":"LARGE","ARG_OF_PERICENTER":"96.2092","OBJECT_TYPE":"PAYLOAD","TLE_LINE1":"1 47399U 21005BC  21354.68584947  .00004571  00000-0  32579-3 0  9992","PERIOD":"95.594","RA_OF_ASC_NODE":"114.9610","REF_FRAME":"TEME","APOAPSIS":"548.470","MEAN_MOTION_DOT":"0.00004571","MEAN_MOTION_DDOT":"0.0000000000000","LAUNCH_DATE":"2021-01-20","OBJECT_NAME":"STARLINK-2121","EPOCH":"2021-12-20T16:27:37.394208","GP_ID":"192113290","NORAD_CAT_ID":"47399","BSTAR":"0.00032579000000","ECCENTRICITY":"0.00017070","PERIAPSIS":"546.106","ELEMENT_SET_NO":"999","OBJECT_ID":"2021-005BC","MEAN_ELEMENT_THEORY":"SGP4","INCLINATION":"53.0557","EPHEMERIS_TYPE":"0","SITE":"AFETR","REV_AT_EPOCH":"5120","CLASSIFICATION_TYPE":"U","SEMIMAJOR_AXIS":"6925.423","FILE":"3245895","DECAY_DATE":null,"TIME_SYSTEM":"UTC","CENTER_NAME":"EARTH","TLE_LINE2":"2 47399  53.0557 114.9610 0001707  96.2092 263.9091 15.06375758 51209","COUNTRY_CODE":"US","MEAN_MOTION":"15.06375758","MEAN_ANOMALY":"263.9091"},{"DECAY_DATE":null,"FILE":"3245895","SEMIMAJOR_AXIS":"6925.311","CLASSIFICATION_TYPE":"U","REV_AT_EPOCH":"5150","INCLINATION":"53.0544","SITE":"AFETR","EPHEMERIS_TYPE":"0","MEAN_ELEMENT_THEORY":"SGP4","MEAN_ANOMALY":"263.7527","MEAN_MOTION":"15.06412149","COUNTRY_CODE":"US","TLE_LINE2":"2 47400  53.0544  94.4322 0001422  96.3623 263.7527 15.06412149 51506","CENTER_NAME":"EARTH","TIME_SYSTEM":"UTC","REF_FRAME":"TEME","PERIOD":"95.591","RA_OF_ASC_NODE":"94.4322","ARG_OF_PERICENTER":"96.3623","TLE_LINE1":"1 47400U 21005BD  21354.80194362  .00004463  00000-0  31820-3 0  9995","OBJECT_TYPE":"PAYLOAD","RCS_SIZE":"LARGE","OBJECT_ID":"2021-005BD","ELEMENT_SET_NO":"999","ECCENTRICITY":"0.00014220","PERIAPSIS":"546.192","GP_ID":"192113541","BSTAR":"0.00031820000000","NORAD_CAT_ID":"47400","LAUNCH_DATE":"2021-01-20","OBJECT_NAME":"STARLINK-2122","EPOCH":"2021-12-20T19:14:47.928768","MEAN_MOTION_DOT":"0.00004463","MEAN_MOTION_DDOT":"0.0000000000000","APOAPSIS":"548.161"},{"APOAPSIS":"548.465","MEAN_MOTION_DDOT":"0.0000000000000","MEAN_MOTION_DOT":"0.00001372","EPOCH":"2021-12-20T19:41:22.492608","OBJECT_NAME":"STARLINK-2123","LAUNCH_DATE":"2021-01-20","BSTAR":"0.00011100000000","GP_ID":"192112289","NORAD_CAT_ID":"47401","PERIAPSIS":"545.947","ECCENTRICITY":"0.00018180","OBJECT_ID":"2021-005BE","ELEMENT_SET_NO":"999","RCS_SIZE":"LARGE","TLE_LINE1":"1 47401U 21005BE  21354.82039922  .00001372  00000-0  11100-3 0  9993","OBJECT_TYPE":"PAYLOAD","ARG_OF_PERICENTER":"85.4996","RA_OF_ASC_NODE":"104.3672","PERIOD":"95.592","REF_FRAME":"TEME","TIME_SYSTEM":"UTC","CENTER_NAME":"EARTH","TLE_LINE2":"2 47401  53.0547 104.3672 0001818  85.4996 274.6201 15.06402512 51378","COUNTRY_CODE":"US","MEAN_ANOMALY":"274.6201","MEAN_MOTION":"15.06402512","MEAN_ELEMENT_THEORY":"SGP4","EPHEMERIS_TYPE":"0","SITE":"AFETR","INCLINATION":"53.0547","REV_AT_EPOCH":"5137","CLASSIFICATION_TYPE":"U","SEMIMAJOR_AXIS":"6925.341","FILE":"3245895","DECAY_DATE":null},{"CLASSIFICATION_TYPE":"U","SEMIMAJOR_AXIS":"6925.318","FILE":"3245895","DECAY_DATE":null,"MEAN_ELEMENT_THEORY":"SGP4","SITE":"AFETR","EPHEMERIS_TYPE":"0","INCLINATION":"53.0539","REV_AT_EPOCH":"5136","MEAN_ANOMALY":"259.2915","MEAN_MOTION":"15.06409950","TIME_SYSTEM":"UTC","CENTER_NAME":"EARTH","TLE_LINE2":"2 47402  53.0539 104.5775 0001511 100.8244 259.2915 15.06409950 51367","COUNTRY_CODE":"US","REF_FRAME":"TEME","RCS_SIZE":"LARGE","OBJECT_TYPE":"PAYLOAD","TLE_LINE1":"1 47402U 21005BF  21354.77248224  .00003735  00000-0  26946-3 0  9994","ARG_OF_PERICENTER":"100.8244","RA_OF_ASC_NODE":"104.5775","PERIOD":"95.592","GP_ID":"192112539","BSTAR":"0.00026946000000","NORAD_CAT_ID":"47402","PERIAPSIS":"546.137","ECCENTRICITY":"0.00015110","ELEMENT_SET_NO":"999","OBJECT_ID":"2021-005BF","APOAPSIS":"548.229","MEAN_MOTION_DDOT":"0.0000000000000","MEAN_MOTION_DOT":"0.00003735","EPOCH":"2021-12-20T18:32:22.465536","LAUNCH_DATE":"2021-01-20","OBJECT_NAME":"STARLINK-2124"},{"LAUNCH_DATE":"2021-01-20","OBJECT_NAME":"STARLINK-2127","EPOCH":"2021-12-20T15:31:54.370848","MEAN_MOTION_DOT":"0.00008814","MEAN_MOTION_DDOT":"0.0000000000000","APOAPSIS":"548.227","OBJECT_ID":"2021-005BG","ELEMENT_SET_NO":"999","ECCENTRICITY":"0.00015630","PERIAPSIS":"546.063","GP_ID":"192112791","NORAD_CAT_ID":"47403","BSTAR":"0.00060948000000","PERIOD":"95.591","RA_OF_ASC_NODE":"105.1503","ARG_OF_PERICENTER":"101.1228","TLE_LINE1":"1 47403U 21005BG  21354.64715707  .00008814  00000-0  60948-3 0  9999","OBJECT_TYPE":"PAYLOAD","RCS_SIZE":"LARGE","REF_FRAME":"TEME","COUNTRY_CODE":"US","TLE_LINE2":"2 47403  53.0554 105.1503 0001563 101.1228 258.9937 15.06422369 51341","CENTER_NAME":"EARTH","TIME_SYSTEM":"UTC","MEAN_MOTION":"15.06422369","MEAN_ANOMALY":"258.9937","REV_AT_EPOCH":"5134","INCLINATION":"53.0554","SITE":"AFETR","EPHEMERIS_TYPE":"0","MEAN_ELEMENT_THEORY":"SGP4","DECAY_DATE":null,"FILE":"3245895","SEMIMAJOR_AXIS":"6925.280","CLASSIFICATION_TYPE":"U"},{"MEAN_ELEMENT_THEORY":"SGP4","EPHEMERIS_TYPE":"0","SITE":"AFETR","INCLINATION":"53.0563","REV_AT_EPOCH":"5136","CLASSIFICATION_TYPE":"U","SEMIMAJOR_AXIS":"6925.331","FILE":"3245895","DECAY_DATE":null,"TIME_SYSTEM":"UTC","CENTER_NAME":"EARTH","TLE_LINE2":"2 47404  53.0563 104.5689 0001298  89.0138 271.1000 15.06405610 51369","COUNTRY_CODE":"US","MEAN_ANOMALY":"271.1000","MEAN_MOTION":"15.06405610","RCS_SIZE":"LARGE","TLE_LINE1":"1 47404U 21005BH  21354.77616355  .00002191  00000-0  16590-3 0  9999","OBJECT_TYPE":"PAYLOAD","ARG_OF_PERICENTER":"89.0138","RA_OF_ASC_NODE":"104.5689","PERIOD":"95.592","REF_FRAME":"TEME","APOAPSIS":"548.095","MEAN_MOTION_DDOT":"0.0000000000000","MEAN_MOTION_DOT":"0.00002191","EPOCH":"2021-12-20T18:37:40.530720","LAUNCH_DATE":"2021-01-20","OBJECT_NAME":"STARLINK-2128","GP_ID":"192113042","NORAD_CAT_ID":"47404","BSTAR":"0.00016590000000","PERIAPSIS":"546.297","ECCENTRICITY":"0.00012980","OBJECT_ID":"2021-005BH","ELEMENT_SET_NO":"999"},{"COUNTRY_CODE":"US","TLE_LINE2":"2 47405  53.0461 134.3696 0001563  93.8884 266.2283 15.06412169 50940","CENTER_NAME":"EARTH","TIME_SYSTEM":"UTC","MEAN_MOTION":"15.06412169","MEAN_ANOMALY":"266.2283","REV_AT_EPOCH":"5094","INCLINATION":"53.0461","EPHEMERIS_TYPE":"0","SITE":"AFETR","MEAN_ELEMENT_THEORY":"SGP4","DECAY_DATE":null,"FILE":"3245895","SEMIMAJOR_AXIS":"6925.311","CLASSIFICATION_TYPE":"U","LAUNCH_DATE":"2021-01-20","OBJECT_NAME":"STARLINK-2130","EPOCH":"2021-12-20T19:48:00.749952","MEAN_MOTION_DOT":"0.00003645","MEAN_MOTION_DDOT":"0.0000000000000","APOAPSIS":"548.259","OBJECT_ID":"2021-005BJ","ELEMENT_SET_NO":"999","ECCENTRICITY":"0.00015630","PERIAPSIS":"546.094","GP_ID":"192111790","NORAD_CAT_ID":"47405","BSTAR":"0.00026337000000","PERIOD":"95.591","RA_OF_ASC_NODE":"134.3696","ARG_OF_PERICENTER":"93.8884","TLE_LINE1":"1 47405U 21005BJ  21354.82500868  .00003645  00000-0  26337-3 0  9992","OBJECT_TYPE":"PAYLOAD","RCS_SIZE":"LARGE","REF_FRAME":"TEME"},{"MEAN_MOTION_DDOT":"0.0000000000000","MEAN_MOTION_DOT":"0.00003259","EPOCH":"2021-12-20T17:18:03.645792","LAUNCH_DATE":"2021-01-20","OBJECT_NAME":"STARLINK-2133","APOAPSIS":"548.194","PERIAPSIS":"546.160","ECCENTRICITY":"0.00014680","ELEMENT_SET_NO":"999","OBJECT_ID":"2021-005BK","GP_ID":"192112040","NORAD_CAT_ID":"47406","BSTAR":"0.00023748000000","TLE_LINE1":"1 47406U 21005BK  21354.72087553  .00003259  00000-0  23748-3 0  9997","OBJECT_TYPE":"PAYLOAD","ARG_OF_PERICENTER":"102.4672","RA_OF_ASC_NODE":"104.8016","PERIOD":"95.591","RCS_SIZE":"LARGE","REF_FRAME":"TEME","TLE_LINE2":"2 47406  53.0547 104.8016 0001468 102.4672 257.6481 15.06411918 51351","COUNTRY_CODE":"US","TIME_SYSTEM":"UTC","CENTER_NAME":"EARTH","MEAN_ANOMALY":"257.6481","MEAN_MOTION":"15.06411918","REV_AT_EPOCH":"5135","MEAN_ELEMENT_THEORY":"SGP4","SITE":"AFETR","EPHEMERIS_TYPE":"0","INCLINATION":"53.0547","FILE":"3245895","DECAY_DATE":null,"CLASSIFICATION_TYPE":"U","SEMIMAJOR_AXIS":"6925.312"}];
